{"type": "FeatureCollection", "features": [ {"type": "Feature", "properties": {"norad_id": 33676, "name": "FENGYUN 1C DEB", "group": "fengyun-1c-debris", "lat": 37.63016875975911, "lon": -151.47303007512917, "alt_km": 793.6120424762066, "timestamp": "2025-12-22T09:53:37.688445+00:00", "meta": {"OBJECT_NAME": "FENGYUN 1C DEB", "OBJECT_ID": "1999-025DFM", "EPOCH": "2025-12-21T08:09:46.238400", "MEAN_MOTION": 14.35570119, "ECCENTRICITY": 0.02048013, "INCLINATION": 99.0955, "RA_OF_ASC_NODE": 20.302, "ARG_OF_PERICENTER": 44.5675, "MEAN_ANOMALY": 317.1775, "EPHEMERIS_TYPE": 0, "CLASSIFICATION_TYPE": "U", "NORAD_CAT_ID": 33676, "ELEMENT_SET_NO": 999, "REV_AT_EPOCH": 65434, "BSTAR": 0.00011255759, "MEAN_MOTION_DOT": 3.55e-06, "MEAN_MOTION_DDOT": 0}, "tle": {"line1": "1 33676U 99025DFM 25355.34011850  .00000355  00000+0  11256-3 0  9992", "line2": "2 33676  99.0955  20.3020 0204801  44.5675 317.1775 14.35570119654346"}}, "geometry": {"type": "Point", "coordinates": [-151.47303007512917, 37.63016875975911]}}, {"type": "Feature", "properties": {"norad_id": 33678, "name": "FENGYUN 1C DEB", "group": "fengyun-1c-debris", "lat": 46.59051125111543, "lon": -107.71726989830972, "alt_km": 690.1999114345172, "timestamp": "2025-12-22T09:53:37.688455+00:00", "meta": {"OBJECT_NAME": "FENGYUN 1C DEB", "OBJECT_ID": "1999-025DFP", "EPOCH": "2025-12-18T15:40:27.738912", "MEAN_MOTION": 14.47381159, "ECCENTRICITY": 0.02051925, "INCLINATION": 99.044, "RA_OF_ASC_NODE": 58.5712, "ARG_OF_PERICENTER": 219.0752, "MEAN_ANOMALY": 139.5466, "EPHEMERIS_TYPE": 0, "CLASSIFICATION_TYPE": "U", "NORAD_CAT_ID": 33678, "ELEMENT_SET_NO": 999, "REV_AT_EPOCH": 95181, "BSTAR": 0.00057827508, "MEAN_MOTION_DOT": 2.7e-05, "MEAN_MOTION_DDOT": 0}, "tle": {"line1": "1 33678U 99025DFP 25352.65309883  .00002700  00000+0  57828-3 0  9992", "line2": "2 33678  99.0440  58.5712 0205192 219.0752 139.5466 14.47381159951819"}}, "geometry": {"type": "Point", "coordinates": [-107.71726989830972, 46.59051125111543]}}, {"type": "Feature", "properties": {"norad_id": 33679, "name": "FENGYUN 1C DEB", "group": "fengyun-1c-debris", "lat": 34.213926198430755, "lon": -108.52883760626612, "alt_km": 610.3072014484587, "timestamp": "2025-12-22T09:53:37.688465+00:00", "meta": {"OBJECT_NAME": "FENGYUN 1C DEB", "OBJECT_ID": "1999-025DFQ", "EPOCH": "2025-12-21T10:52:02.698464", "MEAN_MOTION": 15.02964976, "ECCENTRICITY": 0.01471188, "INCLINATION": 99.3495, "RA_OF_ASC_NODE": 63.8822, "ARG_OF_PERICENTER": 271.4997, "MEAN_ANOMALY": 86.9374, "EPHEMERIS_TYPE": 0, "CLASSIFICATION_TYPE": "U", "NORAD_CAT_ID": 33679, "ELEMENT_SET_NO": 999, "REV_AT_EPOCH": 94254, "BSTAR": 0.0011213735, "MEAN_MOTION_DOT": 0.00019053, "MEAN_MOTION_DDOT": 0}, "tle": {"line1": "1 33679U 99025DFQ 25355.45280901  .00019053  00000+0  11214-2 0  9990", "line2": "2 33679  99.3495  63.8822 0147118 271.4997  86.9374 15.02964976942549"}}, "geometry": {"type": "Point", "coordinates": [-108.52883760626612, 34.213926198430755]}}, {"type": "Feature", "properties": {"norad_id": 33682, "name": "FENGYUN 1C DEB", "group": "fengyun-1c-debris", "lat": -7.0559132112360565, "lon": -137.4506312543944, "alt_km": 819.8773140027797, "timestamp": "2025-12-22T09:53:37.688475+00:00", "meta": {"OBJECT_NAME": "FENGYUN 1C DEB", "OBJECT_ID": "1999-025DFT", "EPOCH": "2025-12-22T02:17:23.614080", "MEAN_MOTION": 14.26736695, "ECCENTRICITY": 0.002796, "INCLINATION": 99.4226, "RA_OF_ASC_NODE": 43.3863, "ARG_OF_PERICENTER": 55.7608, "MEAN_ANOMALY": 304.6212, "EPHEMERIS_TYPE": 0, "CLASSIFICATION_TYPE": "U", "NORAD_CAT_ID": 33682, "ELEMENT_SET_NO": 999, "REV_AT_EPOCH": 91831, "BSTAR": 0.0013417, "MEAN_MOTION_DOT": 3.212e-05, "MEAN_MOTION_DDOT": 0}, "tle": {"line1": "1 33682U 99025DFT 25356.09541220  .00003212  00000+0  13417-2 0  9996", "line2": "2 33682  99.4226  43.3863 0027960  55.7608 304.6212 14.26736695918317"}}, "geometry": {"type": "Point", "coordinates": [-137.4506312543944, -7.0559132112360565]}}, {"type": "Feature", "properties": {"norad_id": 33684, "name": "FENGYUN 1C DEB", "group": "fengyun-1c-debris", "lat": -9.80355448313098, "lon": 54.7153550262376, "alt_km": 497.7085962865449, "timestamp": "2025-12-22T09:53:37.688485+00:00", "meta": {"OBJECT_NAME": "FENGYUN 1C DEB", "OBJECT_ID": "1999-025DFV", "EPOCH": "2025-12-21T02:58:04.469376", "MEAN_MOTION": 14.73261337, "ECCENTRICITY": 0.02865443, "INCLINATION": 99.064, "RA_OF_ASC_NODE": 51.6949, "ARG_OF_PERICENTER": 314.4089, "MEAN_ANOMALY": 43.3976, "EPHEMERIS_TYPE": 0, "CLASSIFICATION_TYPE": "U", "NORAD_CAT_ID": 33684, "ELEMENT_SET_NO": 999, "REV_AT_EPOCH": 93112, "BSTAR": 0.00053131961, "MEAN_MOTION_DOT": 6.571e-05, "MEAN_MOTION_DDOT": 0}, "tle": {"line1": "1 33684U 99025DFV 25355.12366284  .00006571  00000+0  53132-3 0  9996", "line2": "2 33684  99.0640  51.6949 0286544 314.4089  43.3976 14.73261337931121"}}, "geometry": {"type": "Point", "coordinates": [54.7153550262376, -9.80355448313098]}}, {"type": "Feature", "properties": {"norad_id": 33687, "name": "FENGYUN 1C DEB", "group": "fengyun-1c-debris", "lat": -67.83259676958275, "lon": 26.858005379638914, "alt_km": 438.91471499603904, "timestamp": "2025-12-22T09:53:37.688494+00:00", "meta": {"OBJECT_NAME": "FENGYUN 1C DEB", "OBJECT_ID": "1999-025DFY", "EPOCH": "2025-12-16T18:14:40.406496", "MEAN_MOTION": 15.18952421, "ECCENTRICITY": 0.01143186, "INCLINATION": 98.9961, "RA_OF_ASC_NODE": 357.2522, "ARG_OF_PERICENTER": 322.8022, "MEAN_ANOMALY": 36.5326, "EPHEMERIS_TYPE": 0, "CLASSIFICATION_TYPE": "U", "NORAD_CAT_ID": 33687, "ELEMENT_SET_NO": 999, "REV_AT_EPOCH": 71569, "BSTAR": 0.0012331719, "MEAN_MOTION_DOT": 0.00030657, "MEAN_MOTION_DDOT": 0}, "tle": {"line1": "1 33687U 99025DFY 25350.76018989  .00030657  00000+0  12332-2 0  9998", "line2": "2 33687  98.9961 357.2522 0114318 322.8022  36.5326 15.18952421715695"}}, "geometry": {"type": "Point", "coordinates": [26.858005379638914, -67.83259676958275]}}, {"type": "Feature", "properties": {"norad_id": 33688, "name": "FENGYUN 1C DEB", "group": "fengyun-1c-debris", "lat": 47.812599417904146, "lon": 88.30161962511724, "alt_km": 773.6519332560129, "timestamp": "2025-12-22T09:53:37.688504+00:00", "meta": {"OBJECT_NAME": "FENGYUN 1C DEB", "OBJECT_ID": "1999-025DFZ", "EPOCH": "2025-12-21T12:04:28.904448", "MEAN_MOTION": 14.45747973, "ECCENTRICITY": 0.00542987, "INCLINATION": 99.3498, "RA_OF_ASC_NODE": 97.7742, "ARG_OF_PERICENTER": 237.3819, "MEAN_ANOMALY": 122.2122, "EPHEMERIS_TYPE": 0, "CLASSIFICATION_TYPE": "U", "NORAD_CAT_ID": 33688, "ELEMENT_SET_NO": 999, "REV_AT_EPOCH": 91608, "BSTAR": 0.0021929149, "MEAN_MOTION_DOT": 7.868e-05, "MEAN_MOTION_DDOT": 0}, "tle": {"line1": "1 33688U 99025DFZ 25355.50311232  .00007868  00000+0  21929-2 0  9993", "line2": "2 33688  99.3498  97.7742 0054298 237.3819 122.2122 14.45747973916086"}}, "geometry": {"type": "Point", "coordinates": [88.30161962511724, 47.812599417904146]}}, {"type": "Feature", "properties": {"norad_id": 33689, "name": "FENGYUN 1C DEB", "group": "fengyun-1c-debris", "lat": 64.36663690612455, "lon": -15.629855591300048, "alt_km": 716.2831837567928, "timestamp": "2025-12-22T09:53:37.688514+00:00", "meta": {"OBJECT_NAME": "FENGYUN 1C DEB", "OBJECT_ID": "1999-025DGA", "EPOCH": "2025-12-17T19:05:05.195328", "MEAN_MOTION": 14.45178075, "ECCENTRICITY": 0.00483544, "INCLINATION": 99.565, "RA_OF_ASC_NODE": 359.7492, "ARG_OF_PERICENTER": 136.8857, "MEAN_ANOMALY": 42.1948, "EPHEMERIS_TYPE": 0, "CLASSIFICATION_TYPE": "U", "NORAD_CAT_ID": 33689, "ELEMENT_SET_NO": 999, "REV_AT_EPOCH": 69603, "BSTAR": 0.00077368921, "MEAN_MOTION_DOT": 2.694e-05, "MEAN_MOTION_DDOT": 0}, "tle": {"line1": "1 33689U 99025DGA 25351.79519902  .00002694  00000+0  77369-3 0  9997", "line2": "2 33689  99.5650 359.7492 0048354 136.8857  42.1948 14.45178075696030"}}, "geometry": {"type": "Point", "coordinates": [-15.629855591300048, 64.36663690612455]}}, {"type": "Feature", "properties": {"norad_id": 33690, "name": "FENGYUN 1C DEB", "group": "fengyun-1c-debris", "lat": -73.2259020903296, "lon": 125.2067279173994, "alt_km": 729.5073536783175, "timestamp": "2025-12-22T09:53:37.688524+00:00", "meta": {"OBJECT_NAME": "FENGYUN 1C DEB", "OBJECT_ID": "1999-025DGB", "EPOCH": "2025-12-18T05:19:31.905984", "MEAN_MOTION": 14.51538272, "ECCENTRICITY": 0.00300479, "INCLINATION": 98.6138, "RA_OF_ASC_NODE": 90.7228, "ARG_OF_PERICENTER": 32.2004, "MEAN_ANOMALY": 328.1018, "EPHEMERIS_TYPE": 0, "CLASSIFICATION_TYPE": "U", "NORAD_CAT_ID": 33690, "ELEMENT_SET_NO": 999, "REV_AT_EPOCH": 93299, "BSTAR": 0.0017880769, "MEAN_MOTION_DOT": 7.153e-05, "MEAN_MOTION_DDOT": 0}, "tle": {"line1": "1 33690U 99025DGB 25352.22189706  .00007153  00000+0  17881-2 0  9990", "line2": "2 33690  98.6138  90.7228 0030047  32.2004 328.1018 14.51538272932994"}}, "geometry": {"type": "Point", "coordinates": [125.2067279173994, -73.2259020903296]}}, {"type": "Feature", "properties": {"norad_id": 33693, "name": "FENGYUN 1C DEB", "group": "fengyun-1c-debris", "lat": -55.680570335485136, "lon": -20.00086883595784, "alt_km": 1017.6427514780262, "timestamp": "2025-12-22T09:53:37.688534+00:00", "meta": {"OBJECT_NAME": "FENGYUN 1C DEB", "OBJECT_ID": "1999-025DGE", "EPOCH": "2025-12-19T10:41:04.068672", "MEAN_MOTION": 13.71331151, "ECCENTRICITY": 0.022603, "INCLINATION": 99.2143, "RA_OF_ASC_NODE": 170.9053, "ARG_OF_PERICENTER": 341.2495, "MEAN_ANOMALY": 18.0425, "EPHEMERIS_TYPE": 0, "CLASSIFICATION_TYPE": "U", "NORAD_CAT_ID": 33693, "ELEMENT_SET_NO": 999, "REV_AT_EPOCH": 88323, "BSTAR": 0.0011919, "MEAN_MOTION_DOT": 1.24e-05, "MEAN_MOTION_DDOT": 0}, "tle": {"line1": "1 33693U 99025DGE 25353.44518598  .00001240  00000+0  11919-2 0  9990", "line2": "2 33693  99.2143 170.9053 0226030 341.2495  18.0425 13.71331151883230"}}, "geometry": {"type": "Point", "coordinates": [-20.00086883595784, -55.680570335485136]}}]}